NORAD_CAT_ID,OBJECT_NAME,OBJECT_TYPE,EPOCH,MEAN_MOTION,ECCENTRICITY,INCLINATION,RA_OF_ASC_NODE,ARG_OF_PERICENTER,MEAN_ANOMALY,BSTAR,MEAN_MOTION_DOT,MEAN_MOTION_DDOT,TLE_LINE0,TLE_LINE1,TLE_LINE2,SEMIMAJOR_AXIS,PERIOD,APOGEE,PERIGEE,DECAYED
53843.0,STARLINK-4769,PAYLOAD,2022-12-09 00:00:00,15.24115221,0.0001318,53.2175,221.7933,91.5266,344.7404,-0.051326,-0.01164758,0.0,0 STARLINK-4769,1 53843U 22114AB  22343.00001157 -.01164758  00000-0 -51326-1 0  9993,2 53843  53.2175 221.7933 0001318  91.5266 344.7404 15.24115221 13270,6871.581,94.481,494.351,492.54,0.0
53843.0,STARLINK-4769,PAYLOAD,2022-12-09 14:00:01,15.22683607,0.0001107,53.2169,219.1135,71.7949,325.3563,-0.052919,-0.01151648,0.0,0 STARLINK-4769,1 53843U 22114AB  22343.58334491 -.01151648  00000-0 -52919-1 0  9999,2 53843  53.2169 219.1135 0001107  71.7949 325.3563 15.22683607  1300,6875.887,94.57,498.513,496.991,0.0
53843.0,STARLINK-4769,PAYLOAD,2022-12-10 08:00:01,15.20851514,0.0001385999999999,53.2175,215.6799,92.231,96.0022,-0.055824,-0.01150861,0.0,0 STARLINK-4769,1 53843U 22114AB  22344.33335648 -.01150861  00000-0 -55824-1 0  9992,2 53843  53.2175 215.6799 0001386  92.2310  96.0022 15.20851514 13478,6881.408,94.684,504.227,502.319,0.0
53843.0,STARLINK-4769,PAYLOAD,2022-12-10 14:00:01,15.20240002,0.000131,53.2175,214.5363,91.639,25.771,-0.056746,-0.01149156,0.0,0 STARLINK-4769,1 53843U 22114AB  22344.58334491 -.01149156  00000-0 -56746-1 0  9993,2 53843  53.2175 214.5363 0001310  91.6390  25.7710 15.20240002  1307,6883.253000000002,94.722,506.02,504.216,0.0
53843.0,STARLINK-4769,PAYLOAD,2022-12-11 00:00:00,15.19222153,0.0001415,53.2176,212.6364,82.5297,155.7221,-0.058354,-0.01147232,0.0,0 STARLINK-4769,1 53843U 22114AB  22345.00001157 -.01147232  00000-0 -58354-1 0  9991,2 53843  53.2176 212.6364 0001415  82.5297 155.7221 15.19222153  1305,6886.3269999999975,94.785,509.167,507.218,0.0
53843.0,STARLINK-4769,PAYLOAD,2022-12-11 08:00:01,15.18410684,0.0001325,53.2175,211.1154,86.1323,175.7572,-0.059994,-0.01151569,0.0,0 STARLINK-4769,1 53843U 22114AB  22345.33335648 -.01151569  00000-0 -59994-1 0  9991,2 53843  53.2175 211.1154 0001325  86.1323 175.7572 15.18410684 13621,6888.78,94.836,511.5580000000001,509.733,0.0
53843.0,STARLINK-4769,PAYLOAD,2022-12-11 14:00:01,15.17799253,0.0001424,53.2174,209.9763,95.4765,93.3896,-0.060952,-0.01149591,0.0,0 STARLINK-4769,1 53843U 22114AB  22345.58334491 -.01149591  00000-0 -60952-1 0  9991,2 53843  53.2174 209.9763 0001424  95.4765  93.3896 15.17799253  1301,6890.63,94.874,513.477,511.514,0.0
53843.0,STARLINK-4769,PAYLOAD,2022-12-11 22:00:01,15.16983757,0.0001444,53.2174,208.4618,84.1378,126.6542,-0.062236,-0.0114674,0.0,0 STARLINK-4769,1 53843U 22114AB  22345.91668981 -.01146740  00000-0 -62236-1 0  9992,2 53843  53.2174 208.4618 0001444  84.1378 126.6542 15.16983757  1302,6893.1,94.925,515.96,513.969,0.0
53843.0,STARLINK-4769,PAYLOAD,2022-12-12 08:00:01,15.15968916,0.000121,53.2175,206.5681,96.6862,229.9962,-0.064321,-0.01150734,0.0,0 STARLINK-4769,1 53843U 22114AB  22346.33334491 -.01150734  00000-0 -64321-1 0  9990,2 53843  53.2175 206.5681 0001210  96.6862 229.9962 15.15968916 13786,6896.176,94.989,518.875,517.206,0.0
53843.0,STARLINK-4769,PAYLOAD,2022-12-12 14:00:01,15.15356683,0.0001398,53.2173,205.4332,98.121,153.4012,-0.065221,-0.01146943,0.0,0 STARLINK-4769,1 53843U 22114AB  22346.58334491 -.01146943  00000-0 -65221-1 0  9994,2 53843  53.2173 205.4332 0001398  98.1210 153.4012 15.15356683  1300,6898.033,95.027,520.862,518.934,0.0
53843.0,STARLINK-4769,PAYLOAD,2022-12-12 22:00:00,15.14542293,0.0001385,53.2174,203.9246,79.1839,191.2669,-0.06669,-0.01145971,0.0,0 STARLINK-4769,1 53843U 22114AB  22346.91667824 -.01145971  00000-0 -66690-1 0  9991,2 53843  53.2174 203.9246 0001385  79.1839 191.2669 15.14542293  1301,6900.505,95.078,523.326,521.415,0.0
53843.0,STARLINK-4769,PAYLOAD,2022-12-13 06:00:00,15.13730622,0.0001277,53.2173,202.4152,87.8109,200.5914,-0.068483,-0.01149681,0.0,0 STARLINK-4769,1 53843U 22114AB  22347.25001157 -.01149681  00000-0 -68483-1 0  9994,2 53843  53.2173 202.4152 0001277  87.8109 200.5914 15.13730622 13917,6902.972,95.129,525.7180000000002,523.955,0.0
53843.0,STARLINK-4769,PAYLOAD,2022-12-13 12:00:00,15.13119397,0.0001412,53.2172,201.2838,87.5315,123.6939,-0.069592,-0.01148439,0.0,0 STARLINK-4769,1 53843U 22114AB  22347.50001157 -.01148439  00000-0 -69592-1 0  9994,2 53843  53.2172 201.2838 0001412  87.5315 123.6939 15.13119397  1303,6904.831,95.168,527.6709999999998,525.721,0.0
53843.0,STARLINK-4769,PAYLOAD,2022-12-13 22:00:00,15.12101608,0.0001283,53.2174,199.4044,82.1593,239.2126,-0.071491,-0.01146626,0.0,0 STARLINK-4769,1 53843U 22114AB  22347.91667824 -.01146626  00000-0 -71491-1 0  9995,2 53843  53.2174 199.4044 0001283  82.1593 239.2126 15.12101608  1304,6907.929,95.232,530.68,528.908,0.0
53843.0,STARLINK-4769,PAYLOAD,2022-12-14 06:00:00,15.11289121,0.000121,53.2173,197.9004,77.5415,258.8488,-0.07331,-0.01149152,0.0,0 STARLINK-4769,1 53843U 22114AB  22348.25001157 -.01149152  00000-0 -73310-1 0  9993,2 53843  53.2173 197.9004 0001210  77.5415 258.8488 15.11289121 14075,6910.405,95.283,533.106,531.433,0.0
53843.0,STARLINK-4769,PAYLOAD,2022-12-14 14:00:01,15.10473116,0.0001264,53.2169,196.3982,71.5531,278.8786,-0.07468,-0.01144708,0.0,0 STARLINK-4769,1 53843U 22114AB  22348.58334491 -.01144708  00000-0 -74680-1 0  9992,2 53843  53.2169 196.3982 0001264  71.5531 278.8786 15.10473116  1303,6912.893,95.334,535.632,533.884,0.0
53843.0,STARLINK-4769,PAYLOAD,2022-12-14 22:00:00,15.09544151,0.0001364,53.217,194.9007,82.2793,281.2295,-0.050513,-0.00759785,0.0,0 STARLINK-4769,1 53843U 22114AB  22348.91667824 -.00759785  00000-0 -50513-1 0  9993,2 53843  53.2170 194.9007 0001364  82.2793 281.2295 15.09544151  1306,6915.729,95.393,538.5369999999998,536.651,0.0
53843.0,STARLINK-4769,PAYLOAD,2022-12-15 10:00:00,15.08836156,0.0001307,53.2173,192.6537,93.8276,107.6233,6.7795e-05,7.91e-06,0.0,0 STARLINK-4769,1 53843U 22114AB  22349.41667824  .00000791  00000-0  67795-4 0  9996,2 53843  53.2173 192.6537 0001307  93.8276 107.6233 15.08836156 14241,6917.892,95.438,540.661,538.8530000000002,0.0
53843.0,STARLINK-4769,PAYLOAD,2022-12-15 14:00:01,15.08835369,0.0001394,53.2175,191.9055,78.7863,308.4607,0.00021609,3.152e-05,0.0,0 STARLINK-4769,1 53843U 22114AB  22349.58334491  .00003152  00000-0  21609-3 0  9992,2 53843  53.2175 191.9055 0001394  78.7863 308.4607 15.08835369  1304,6917.895,95.438,540.724,538.795,0.0
53843.0,STARLINK-4769,PAYLOAD,2022-12-15 22:00:00,15.08843696,0.000127,53.214,190.4074,68.9787,329.7675,0.0011439,0.00017966,0.0,0 STARLINK-4769,1 53843U 22114AB  22349.91667824  .00017966  00000-0  11439-2 0  9995,2 53843  53.2140 190.4074 0001270  68.9787 329.7675 15.08843696  1303,6917.869000000002,95.437,540.613,538.856,0.0
53843.0,STARLINK-4769,PAYLOAD,2022-12-16 04:00:00,15.08889843,0.0001218,53.214,189.2846,68.7409,248.7017,-0.0051713,-0.00081766,0.0,0 STARLINK-4769,1 53843U 22114AB  22350.16667824 -.00081766  00000-0 -51713-2 0  9994,2 53843  53.2140 189.2846 0001218  68.7409 248.7017 15.08889843 14361,6917.728,95.434,540.436,538.75,0.0
53843.0,STARLINK-4769,PAYLOAD,2022-12-16 14:00:01,15.08829502,0.0001332,53.2143,187.4129,81.2567,340.6948,0.00065221,0.00010104,0.0,0 STARLINK-4769,1 53843U 22114AB  22350.58334491  .00010104  00000-0  65221-3 0  9997,2 53843  53.2143 187.4129 0001332  81.2567 340.6948 15.08829502  1301,6917.9119999999975,95.438,540.6990000000002,538.856,0.0
53843.0,STARLINK-4769,PAYLOAD,2022-12-16 22:00:00,15.0882005,0.0001402,53.2143,185.9181,71.1651,2.3767,0.0012387,0.0001947,0.0,0 STARLINK-4769,1 53843U 22114AB  22350.91667824  .00019470  00000-0  12387-2 0  9992,2 53843  53.2143 185.9181 0001402  71.1651   2.3767 15.08820050  1302,6917.941,95.439,540.776,538.836,0.0
53843.0,STARLINK-4769,PAYLOAD,2022-12-17 00:00:00,15.08808888,0.0001369,53.2141,185.5441,68.8822,97.5583,0.0030802,0.00049033,0.0,0 STARLINK-4769,1 53843U 22114AB  22351.00001157  .00049033  00000-0  30802-2 0  9994,2 53843  53.2141 185.5441 0001369  68.8822  97.5583 15.08808888 14480,6917.975,95.44,540.788,538.893,0.0
53843.0,STARLINK-4769,PAYLOAD,2022-12-17 14:00:01,15.08843144,0.0001329,53.2143,182.9237,81.9682,14.7981,4.7535e-05,4.69e-06,0.0,0 STARLINK-4769,1 53843U 22114AB  22351.58335648  .00000469  00000-0  47535-4 0  9995,2 53843  53.2143 182.9237 0001329  81.9682  14.7981 15.08843144  1306,6917.871,95.437,540.655,538.816,0.0
53843.0,STARLINK-4769,PAYLOAD,2022-12-17 22:00:00,15.08756003,0.0001336,53.2159,181.431,72.6856,35.6348,0.014048,0.00230152,0.0,0 STARLINK-4769,1 53843U 22114AB  22351.91667824  .00230152  00000-0  14048-1 0  9990,2 53843  53.2159 181.4310 0001336  72.6856  35.6348 15.08756003  1303,6918.137,95.443,540.9259999999998,539.078,0.0
53843.0,STARLINK-4769,PAYLOAD,2022-12-18 05:28:16,15.08841994,0.0001269,53.2151,180.0299,74.9921,285.1212,-3.1789000000000003e-05,-7.94e-06,0.0,0 STARLINK-4769,1 53843U 22114AB  22352.22796950 -.00000794  00000-0 -31789-4 0  9991,2 53843  53.2151 180.0299 0001269  74.9921 285.1212 15.08841994 15210,6917.874,95.437,540.617,538.861,0.0
53843.0,STARLINK-4769,PAYLOAD,2022-12-18 19:46:44,15.08836431,0.0001293,53.2149,177.3537,75.9437,284.1699,8.5769e-05,1.077e-05,0.0,0 STARLINK-4769,1 53843U 22114AB  22352.82412847  .00001077  00000-0  85769-4 0  9997,2 53843  53.2149 177.3537 0001293  75.9437 284.1699 15.08836431 15309,6917.891,95.438,540.651,538.862,0.0
53843.0,STARLINK-4769,PAYLOAD,2022-12-19 05:19:03,15.08839543,0.0001324,53.2152,175.5694,75.1905,284.9234,8.7104e-05,1.099e-05,0.0,0 STARLINK-4769,1 53843U 22114AB  22353.22156686  .00001099  00000-0  87104-4 0  9997,2 53843  53.2152 175.5694 0001324  75.1905 284.9234 15.08839543 14820,6917.882,95.438,540.663,538.831,0.0
